NORAD_CAT_ID,OBJECT_NAME,OBJECT_TYPE,EPOCH,MEAN_MOTION,ECCENTRICITY,INCLINATION,RA_OF_ASC_NODE,ARG_OF_PERICENTER,MEAN_ANOMALY,BSTAR,MEAN_MOTION_DOT,MEAN_MOTION_DDOT,TLE_LINE0,TLE_LINE1,TLE_LINE2,SEMIMAJOR_AXIS,PERIOD,APOGEE,PERIGEE,DECAYED
54170.0,STARLINK-5155,PAYLOAD,2023-05-27 16:25:33,15.08844691,9.09e-05,53.2145,249.6871,97.0294,263.0801,0.00012866,1.761e-05,0.0,0 STARLINK-5155,1 54170U 22141P   23147.68441125  .00001761  00000-0  12866-3 0  9996,2 54170  53.2145 249.6871 0000909  97.0294 263.0801 15.08844691 32310,6917.866,95.437,540.36,539.102,0.0
54170.0,STARLINK-5155,PAYLOAD,2023-05-28 00:22:28,15.08840614,8.93e-05,53.215,248.1989,100.9171,259.1922,0.00011383,1.524e-05,0.0,0 STARLINK-5155,1 54170U 22141P   23148.01561318  .00001524  00000-0  11383-3 0  9991,2 54170  53.2150 248.1989 0000893 100.9171 259.1922 15.08840614 32377,6917.879,95.438,540.361,539.126,0.0
54170.0,STARLINK-5155,PAYLOAD,2023-05-28 13:05:33,15.08845594,8.94e-05,53.2158,245.8199,102.8993,257.2099,0.00011693,1.574e-05,0.0,0 STARLINK-5155,1 54170U 22141P   23148.54552988  .00001574  00000-0  11693-3 0  9991,2 54170  53.2158 245.8199 0000894 102.8993 257.2099 15.08845594 32451,6917.863,95.437,540.347,539.11,0.0
54170.0,STARLINK-5155,PAYLOAD,2023-05-29 09:45:34,15.0884183,9.04e-05,53.2155,241.9538,102.8386,257.2707,9.1836e-05,1.174e-05,0.0,0 STARLINK-5155,1 54170U 22141P   23149.40665151  .00001174  00000-0  91836-4 0  9998,2 54170  53.2155 241.9538 0000904 102.8386 257.2707 15.08841830 32578,6917.875,95.437,540.365,539.114,0.0
54170.0,STARLINK-5155,PAYLOAD,2023-05-29 12:56:20,15.08844106,8.63e-05,53.2156,241.3592,99.4133,260.6956,7.1787e-05,8.55e-06,0.0,0 STARLINK-5155,1 54170U 22141P   23149.53912998  .00000855  00000-0  71787-4 0  9994,2 54170  53.2156 241.3592 0000863  99.4133 260.6956 15.08844106 32605,6917.868,95.437,540.33,539.136,0.0
54170.0,STARLINK-5155,PAYLOAD,2023-05-30 11:11:45,15.08836725,9.7e-05,53.216,237.1968,98.2047,261.9055,1.1773e-05,-1e-06,0.0,0 STARLINK-5155,1 54170U 22141P   23150.46649709 -.00000100  00000-0  11773-4 0  9998,2 54170  53.2160 237.1968 0000970  98.2047 261.9055 15.08836725 32747,6917.89,95.438,540.426,539.084,0.0
54170.0,STARLINK-5155,PAYLOAD,2023-05-30 12:47:08,15.08836845,0.0001136,53.2165,236.901,116.7594,243.3514,3.0492e-05,1.97e-06,0.0,0 STARLINK-5155,1 54170U 22141P   23150.53273587  .00000197  00000-0  30492-4 0  9997,2 54170  53.2165 236.9010 0001136 116.7594 243.3514 15.08836845 32742,6917.89,95.438,540.541,538.969,0.0
54170.0,STARLINK-5155,PAYLOAD,2023-05-31 11:02:32,15.08838959,0.0001031,53.2164,232.7387,106.9811,253.1294,6.9659e-05,8.21e-06,0.0,0 STARLINK-5155,1 54170U 22141P   23151.46009489  .00000821  00000-0  69659-4 0  9999,2 54170  53.2164 232.7387 0001031 106.9811 253.1294 15.08838959 32897,6917.884,95.438,540.462,539.035,0.0
54170.0,STARLINK-5155,PAYLOAD,2023-05-31 22:10:14,15.0883749,9.56e-05,53.2158,230.6572,103.8327,256.2772,8.3092e-05,1.035e-05,0.0,0 STARLINK-5155,1 54170U 22141P   23151.92377622  .00001035  00000-0  83092-4 0  9992,2 54170  53.2158 230.6572 0000956 103.8327 256.2772 15.08837490 32957,6917.888,95.438,540.414,539.092,0.0
54170.0,STARLINK-5155,PAYLOAD,2023-06-01 10:53:19,15.08838862,9.27e-05,53.2159,228.2782,101.4692,258.6404,6.2424e-05,7.06e-06,0.0,0 STARLINK-5155,1 54170U 22141P   23152.45369723  .00000706  00000-0  62424-4 0  9994,2 54170  53.2159 228.2782 0000927 101.4692 258.6404 15.08838862 33044,6917.884,95.438,540.39,539.108,0.0
54170.0,STARLINK-5155,PAYLOAD,2023-06-02 10:44:06,15.08835529,9.94e-05,53.2161,223.8169,92.4955,267.6151,1.3031e-05,-8e-07,0.0,0 STARLINK-5155,1 54170U 22141P   23153.44730233 -.00000080  00000-0  13031-4 0  9998,2 54170  53.2161 223.8169 0000994  92.4955 267.6151 15.08835529 33183,6917.894,95.438,540.447,539.071,0.0
54170.0,STARLINK-5155,PAYLOAD,2023-06-02 12:19:30,15.08836575,9.54e-05,53.2159,223.5195,89.7211,270.389,2.024e-05,3.4e-07,0.0,0 STARLINK-5155,1 54170U 22141P   23153.51354189  .00000034  00000-0  20240-4 0  9996,2 54170  53.2159 223.5195 0000954  89.7211 270.3890 15.08836575 33202,6917.891,95.438,540.416,539.096,0.0
54170.0,STARLINK-5155,PAYLOAD,2023-06-03 10:34:53,15.08842171,9.43e-05,53.2157,219.3557,77.5445,282.5653,6.0069e-05,6.68e-06,0.0,0 STARLINK-5155,1 54170U 22141P   23154.44089861  .00000668  00000-0  60069-4 0  9997,2 54170  53.2157 219.3557 0000943  77.5445 282.5653 15.08842171 33332,6917.874,95.437,540.391,539.086,0.0
54170.0,STARLINK-5155,PAYLOAD,2023-06-03 13:45:39,15.08844192,9.44e-05,53.2156,218.7608,79.4387,280.6712,7.2189e-05,8.61e-06,0.0,0 STARLINK-5155,1 54170U 22141P   23154.57337652  .00000861  00000-0  72189-4 0  9996,2 54170  53.2156 218.7608 0000944  79.4387 280.6712 15.08844192 33361,6917.868,95.437,540.386,539.08,0.0
54170.0,STARLINK-5155,PAYLOAD,2023-06-04 12:01:03,15.08839375,9.17e-05,53.2152,214.5972,80.2255,279.884,8.1889e-05,1.016e-05,0.0,0 STARLINK-5155,1 54170U 22141P   23155.50073913  .00001016  00000-0  81889-4 0  9997,2 54170  53.2152 214.5972 0000917  80.2255 279.8840 15.08839375 33504,6917.882,95.438,540.382,539.113,0.0
54170.0,STARLINK-5155,PAYLOAD,2023-06-05 10:16:27,15.08842992,8.55e-05,53.2148,210.4338,83.6374,276.4715,3.1177e-05,2.09e-06,0.0,0 STARLINK-5155,1 54170U 22141P   23156.42809719  .00000209  00000-0  31177-4 0  9998,2 54170  53.2148 210.4338 0000855  83.6374 276.4715 15.08842992 33648,6917.871,95.437,540.328,539.145,0.0
54170.0,STARLINK-5155,PAYLOAD,2023-06-05 22:59:32,15.08839363,9e-05,53.215,208.0561,75.6587,284.4505,3.6373e-05,2.91e-06,0.0,0 STARLINK-5155,1 54170U 22141P   23156.95801916  .00000291  00000-0  36373-4 0  9991,2 54170  53.2150 208.0561 0000900  75.6587 284.4505 15.08839363 33712,6917.882,95.438,540.37,539.125,0.0
54170.0,STARLINK-5155,PAYLOAD,2023-06-06 10:07:14,15.08837614,8.89e-05,53.2151,205.9743,84.2105,275.8988,1.9424e-05,2.1e-07,0.0,0 STARLINK-5155,1 54170U 22141P   23157.42170089  .00000021  00000-0  19424-4 0  9993,2 54170  53.2151 205.9743 0000889  84.2105 275.8988 15.08837614 33793,6917.888,95.438,540.368,539.138,0.0
54170.0,STARLINK-5155,PAYLOAD,2023-06-07 06:47:15,15.088358,8.78e-05,53.2151,202.1088,82.8136,277.2956,1.3658e-05,-7e-07,0.0,0 STARLINK-5155,1 54170U 22141P   23158.28282348 -.00000070  00000-0  13658-4 0  9998,2 54170  53.2151 202.1088 0000878  82.8136 277.2956 15.08835800 33910,6917.893,95.438,540.366,539.151,0.0
54170.0,STARLINK-5155,PAYLOAD,2023-06-07 11:33:25,15.08840609,9.04e-05,53.2151,201.2165,82.0953,278.0142,3.893e-05,3.32e-06,0.0,0 STARLINK-5155,1 54170U 22141P   23158.48153990  .00000332  00000-0  38930-4 0  9990,2 54170  53.2151 201.2165 0000904  82.0953 278.0142 15.08840609 33958,6917.879,95.438,540.369,539.118,0.0
54170.0,STARLINK-5155,PAYLOAD,2023-06-08 08:13:26,15.08834358,9.11e-05,53.2148,197.3505,80.7845,279.325,5.0336e-05,5.13e-06,0.0,0 STARLINK-5155,1 54170U 22141P   23159.34266576  .00000513  00000-0  50336-4 0  9996,2 54170  53.2148 197.3505 0000911  80.7845 279.3250 15.08834358 34072,6917.898,95.438,540.393,539.132,0.0
54170.0,STARLINK-5155,PAYLOAD,2023-06-09 09:39:36,15.08836669,9.48e-05,53.215,192.5929,91.7529,268.3572,5.3126e-05,5.58e-06,0.0,0 STARLINK-5155,1 54170U 22141P   23160.40250649  .00000558  00000-0  53126-4 0  9998,2 54170  53.2150 192.5929 0000948  91.7529 268.3572 15.08836669 34244,6917.891,95.438,540.411,539.1,0.0
54170.0,STARLINK-5155,PAYLOAD,2023-06-10 11:05:46,15.08838302,9.01e-05,53.2149,187.8344,87.094,273.0155,4.1157e-05,3.67e-06,0.0,0 STARLINK-5155,1 54170U 22141P   23161.46234795  .00000367  00000-0  41157-4 0  9998,2 54170  53.2149 187.8344 0000901  87.0940 273.0155 15.08838302 34408,6917.886,95.438,540.374,539.127,0.0
54170.0,STARLINK-5155,PAYLOAD,2023-06-10 19:02:42,15.08835903,8.96e-05,53.2149,186.3475,83.6493,276.4601,2.0961e-05,4.6e-07,0.0,0 STARLINK-5155,1 54170U 22141P   23161.79355068  .00000046  00000-0  20961-4 0  9995,2 54170  53.2149 186.3475 0000896  83.6493 276.4601 15.08835903 34457,6917.893,95.438,540.378,539.138,0.0
54170.0,STARLINK-5155,PAYLOAD,2023-06-11 07:45:47,15.08836845,8.86e-05,53.2149,183.9683,83.3165,276.7928,3.6876e-05,2.99e-06,0.0,0 STARLINK-5155,1 54170U 22141P   23162.32347075  .00000299  00000-0  36876-4 0  9996,2 54170  53.2149 183.9683 0000886  83.3165 276.7928 15.08836845 34533,6917.89,95.438,540.368,539.142,0.0
54170.0,STARLINK-5155,PAYLOAD,2023-06-11 20:28:52,15.08840273,8.89e-05,53.2148,181.5892,81.8661,278.2432,5.8951e-05,6.51e-06,0.0,0 STARLINK-5155,1 54170U 22141P   23162.85338829  .00000651  00000-0  58951-4 0  9991,2 54170  53.2148 181.5892 0000889  81.8661 278.2432 15.08840273 34611,6917.88,95.438,540.36,539.13,0.0
54170.0,STARLINK-5155,PAYLOAD,2023-06-12 01:15:02,15.08841068,8.84e-05,53.2148,180.697,82.0051,278.1042,7.5823e-05,9.19e-06,0.0,0 STARLINK-5155,1 54170U 22141P   23163.05210717  .00000919  00000-0  75823-4 0  9993,2 54170  53.2148 180.6970 0000884  82.0051 278.1042 15.08841068 34630,6917.877,95.437,540.354,539.131,0.0
54170.0,STARLINK-5155,PAYLOAD,2023-06-12 07:36:34,15.08842253,8.88e-05,53.2148,179.5075,81.4392,278.6701,8.1477e-05,1.009e-05,0.0,0 STARLINK-5155,1 54170U 22141P   23163.31706608  .00001009  00000-0  81477-4 0  9994,2 54170  53.2148 179.5075 0000888  81.4392 278.6701 15.08842253 34687,6917.874,95.437,540.353,539.124,0.0
54170.0,STARLINK-5155,PAYLOAD,2023-06-13 01:05:49,15.08839474,8.96e-05,53.2148,176.2364,79.785,280.3243,5.7906e-05,6.34e-06,0.0,0 STARLINK-5155,1 54170U 22141P   23164.04570833  .00000634  00000-0  57906-4 0  9997,2 54170  53.2148 176.2364 0000896  79.7850 280.3243 15.08839474 34794,6917.882,95.438,540.367,539.127,0.0
54170.0,STARLINK-5155,PAYLOAD,2023-06-13 04:16:35,15.08838373,9.03e-05,53.2147,175.6416,79.7356,280.3738,4.5371e-05,4.34e-06,0.0,0 STARLINK-5155,1 54170U 22141P   23164.17818918  .00000434  00000-0  45371-4 0  9991,2 54170  53.2147 175.6416 0000903  79.7356 280.3738 15.08838373 34802,6917.885,95.438,540.375,539.126,0.0
